ONEWEB-0269             
1 48987U 21060W   23237.59916271  .00000068  00000+0  14544-3 0  9996
2 48987  87.9080  73.1075 0001676  86.9584 273.1739 13.16595669104540
ONEWEB-0270             
1 48988U 21060X   23237.61605846  .00000117  00000+0  27116-3 0  9997
2 48988  87.8981  73.1324 0002353 101.3970 258.7426 13.16597102104581
ONEWEB-0271             
1 48989U 21060Y   23238.43934949  .00000028  00000+0  39457-4 0  9991
2 48989  87.8978  72.9433 0001982 101.8627 258.2726 13.16595200105987
ONEWEB-0272             
1 48990U 21060Z   23237.62660903 -.00000358  00000+0 -97044-3 0  9992
2 48990  87.9082  73.1154 0001882  90.3864 269.7482 13.16598828104538
ONEWEB-0273             
1 48991U 21060AA  23237.57172472 -.00000053  00000+0 -17331-3 0  9999
2 48991  87.8978  73.1301 0001928  93.7513 266.3839 13.16594183105805
ONEWEB-0274             
1 48992U 21060AB  23237.59706258  .00000033  00000+0  52763-4 0  9992
2 48992  87.8980  73.1285 0001869  96.8043 263.3301 13.16593577104543
ONEWEB-0275             
1 48993U 21060AC  23237.58650022  .00000012  00000+0 -13601-5 0  9996
2 48993  87.8982  73.1341 0001828  90.2163 269.9177 13.16598098104473
ONEWEB-0276             
1 48994U 21060AD  23238.45624099 -.00000086  00000+0 -25853-3 0  9991
2 48994  87.9071  72.9350 0002111  98.8497 261.2873 13.16599012105905
ONEWEB-0277             
1 48995U 21060AE  23238.46891485  .00000055  00000+0  10989-3 0  9996
2 48995  87.9094  72.9355 0001998 103.9944 256.1409 13.16593779105882
ONEWEB-0278             
1 48996U 21060AF  23237.62239417  .00000063  00000+0  13086-3 0  9995
2 48996  87.8980  73.1097 0001969  77.1046 283.0305 13.16594807104612
ONEWEB-0279             
1 48997U 21060AG  23237.63085027  .00000150  00000+0  35981-3 0  9998
2 48997  87.8978  73.1063 0001727  88.2107 271.9221 13.16594489104547
ONEWEB-0280             
1 48998U 21060AH  23237.56960386 -.00000268  00000+0 -73427-3 0  9990
2 48998  87.8971  73.1188 0002014 112.0111 248.1234 13.16593633105765
ONEWEB-0281             
1 48999U 21060AJ  23237.57596199 -.00000049  00000+0 -16090-3 0  9999
2 48999  87.8979  73.1207 0001505  87.9458 272.1846 13.16593168105853
ONEWEB-0282             
1 49000U 21060AK  23237.60550051  .00000109  00000+0  25084-3 0  9992
2 49000  87.9078  73.1172 0002092  94.5173 265.6197 13.16592029104523
ONEWEB-0283             
1 49001U 21060AL  23237.59495171  .00000018  00000+0  13212-4 0  9992
2 49001  87.9049  73.1074 0001876 100.4360 259.6982 13.16592502104539
ONEWEB-0284             
1 49002U 21060AM  23237.58861036  .00000008  00000+0 -12076-4 0  9996
2 49002  87.8972  73.1552 0002090  89.6133 270.5237 13.16593090104516
ONEWEB-0285             
1 49075U 21075A   23237.83497373 -.00000387  00000+0 -11103-2 0  9998
2 49075  87.9035 194.6665 0002148  83.8972 276.2402 13.12440623100581
ONEWEB-0286             
1 49076U 21075B   23237.87947366  .00000369  00000+0  99000-3 0  9996
2 49076  87.9035 194.6661 0001697  70.9845 289.1468 13.12441868 99946
ONEWEB-0287             
1 49077U 21075C   23238.42271055 -.00000740  00000+0 -19380-2 0  9991
2 49077  87.9118 209.7043 0001924  71.5930 288.5410 13.17652008 99514
ONEWEB-0288             
1 49078U 21075D   23237.86461381  .00000360  00000+0  96498-3 0  9994
2 49078  87.9038 194.6735 0002110  77.1576 282.9788 13.12446058100567
ONEWEB-0289             
1 49079U 21075E   23237.84266791  .00000091  00000+0  20105-3 0  9994
2 49079  87.9195 209.7925 0001971  88.0387 272.0970 13.17649856 99045
ONEWEB-0290             
1 49080U 21075F   23238.43328688  .00000251  00000+0  61415-3 0  9993
2 49080  87.9120 209.6962 0002200  84.1004 276.0379 13.17648439 99519
ONEWEB-0291             
1 49081U 21075G   23237.88482835 -.00000042  00000+0 -14052-3 0  9992
2 49081  87.9186 209.7922 0002262  76.8690 283.2693 13.17649167 98456
ONEWEB-0293             
1 49082U 21075H   23237.91016885  .00000064  00000+0  13279-3 0  9997
2 49082  87.9198 209.7760 0002302  80.0953 280.0438 13.17650834 98482
ONEWEB-0294             
1 49083U 21075J   23237.86992291  .00000498  00000+0  13500-2 0  9993
2 49083  87.9039 194.6707 0002471  84.3501 275.7909 13.12442598 99951
ONEWEB-0295             
1 49084U 21075K   23238.44380564  .00000064  00000+0  13124-3 0  9995
2 49084  87.9202 209.6395 0002177  69.4298 290.7067 13.17646108 99471
ONEWEB-0296             
1 49085U 21075L   23237.85404192  .00000089  00000+0  21134-3 0  9991
2 49085  87.9042 194.6745 0002567  59.4529 300.6853 13.12437730 99956
ONEWEB-0297             
1 49086U 21075M   23237.88369452  .00000730  00000+0  19931-2 0  9998
2 49086  87.9042 194.6504 0001776  84.4840 275.6491 13.12441503100567
ONEWEB-0298             
1 49087U 21075N   23238.44594064  .00000107  00000+0  24217-3 0  9993
2 49087  87.9201 209.6608 0001902  77.5944 282.5401 13.17650866 99537
ONEWEB-0299             
1 49088U 21075P   23238.44805450  .00010776  00000+0  27710-1 0  9990
2 49088  87.9136 209.6938 0002060  86.4147 273.7220 13.17593800 99491
ONEWEB-0300             
1 49089U 21075Q   23238.40885735  .00005868  00000+0  16265-1 0  9990
2 49089  87.9041 194.5625 0001478  95.7767 264.3530 13.12440218101645
ONEWEB-0301             
1 49090U 21075R   23237.86037276  .00000248  00000+0  65526-3 0  9993
2 49090  87.9039 194.6724 0001902  92.1673 267.9673 13.12445891 99942
ONEWEB-0302             
1 49091U 21075S   23237.92497886 -.00000192  00000+0 -56835-3 0  9991
2 49091  87.9040 194.6567 0002173  74.9706 285.1662 13.12444454100932
ONEWEB-0304             
1 49092U 21075T   23237.89328683 -.00000008  00000+0 -52828-4 0  9991
2 49092  87.9187 209.7771 0001948  79.8289 280.3062 13.17648662 98422
ONEWEB-0305             
1 49093U 21075U   23237.95867686 -.00001332  00000+0 -34632-2 0  9992
2 49093  87.9132 209.7924 0002568  56.9602 303.1776 13.17649956 99432
ONEWEB-0308             
1 49094U 21075V   23237.84344507 -.00000307  00000+0 -88918-3 0  9991
2 49094  87.9037 194.6752 0001972  83.1796 276.9557 13.12439852 99938
ONEWEB-0309             
1 49095U 21075W   23237.96499401 -.00000173  00000+0 -47886-3 0  9999
2 49095  87.9136 209.8001 0002792  79.8025 280.3421 13.17645868 99427
ONEWEB-0310             
1 49096U 21075X   23237.93133440  .00000133  00000+0  33363-3 0  9994
2 49096  87.9044 194.6397 0002321  83.0206 277.1186 13.12442940101574
ONEWEB-0311             
1 49097U 21075Y   23238.42693721 -.00000786  00000+0 -20564-2 0  9997
2 49097  87.9119 209.7092 0001142  76.1906 283.9353 13.17656372 99543
ONEWEB-0312             
1 49098U 21075Z   23238.43960574  .00000067  00000+0  13856-3 0  9999
2 49098  87.9197 209.6758 0002262  69.9262 290.2113 13.17645627 99509
ONEWEB-0313             
1 49099U 21075AA  23237.88695011 -.00000017  00000+0 -75936-4 0  9994
2 49099  87.9184 209.8041 0002158  72.3545 287.7823 13.17648727 98444
ONEWEB-0314             
1 49100U 21075AB  23238.41218874  .00017313  00000+0  44527-1 0  9999
2 49100  87.9115 209.7058 0002541  63.4790 296.6602 13.17564919 99475
ONEWEB-0315             
1 49101U 21075AC  23237.90274025 -.00000203  00000+0 -59856-3 0  9998
2 49101  87.9035 194.6570 0001796  86.5125 273.6209 13.12443759100550
ONEWEB-0316             
1 49102U 21075AD  23237.85341504  .00000043  00000+0  76817-4 0  9997
2 49102  87.9217 179.5857 0001832  72.5703 287.5629 13.18683584101943
ONEWEB-0317             
1 49103U 21075AE  23237.89847691 -.00000092  00000+0 -29235-3 0  9997
2 49103  87.9038 194.6639 0002332  81.2237 278.9156 13.12436833100570
ONEWEB-0318             
1 49104U 21075AF  23237.85129601  .00000044  00000+0  78762-4 0  9993
2 49104  87.9220 179.5761 0001751  70.0232 290.1088 13.18687481101908
ONEWEB-0319             
1 49105U 21075AG  23237.89751672 -.00000026  00000+0 -10092-3 0  9990
2 49105  87.9194 209.7774 0001760  61.3253 298.8055 13.17650882 98453
ONEWEB-0323             
1 49106U 21075AH  23237.96521388  .00000278  00000+0  73848-3 0  9993
2 49106  87.9039 194.6397 0001942  75.5883 284.5461 13.12442591100945
ONEWEB-0329             
1 49107U 21075AJ  23238.43539417 -.00000101  00000+0 -29205-3 0  9994
2 49107  87.9198 209.6733 0002130  73.7289 286.4077 13.17650696 99496
ONEWEB-0330             
1 49108U 21075AK  23237.90593702  .00000000  00000+0 -32169-4 0  9994
2 49108  87.9186 209.7959 0002265  78.5966 281.5420 13.17646596 98478
ONEWEB-0292             
1 49186U 21083A   23237.82301345 -.00000279  00000+0 -79827-3 0  9990
2 49186  87.9089 164.4116 0002197  73.1115 287.0255 13.13470667 96193
ONEWEB-0303             
1 49187U 21083B   23237.84710289  .00000108  00000+0  24052-3 0  9993
2 49187  87.9221 179.5799 0001912  72.7820 287.3522 13.18687718 94716
ONEWEB-0306             
1 49188U 21083C   23237.83864855 -.00000005  00000+0 -45519-4 0  9992
2 49188  87.9219 179.5690 0001725  76.6707 283.4617 13.18688344 94755
ONEWEB-0307             
1 49189U 21083D   23237.81880731  .00000017  00000+0  10464-4 0  9994
2 49189  87.9090 164.4107 0002148  78.1068 282.0302 13.13468951 97480
ONEWEB-0320             
1 49190U 21083E   23237.84498882  .00000033  00000+0  51973-4 0  9999
2 49190  87.9222 179.5904 0002177  80.6226 279.5152 13.18684999 94711
ONEWEB-0321             
1 49191U 21083F   23238.22724386  .00000069  00000+0  13744-3 0  9996
2 49191  87.9207 118.7215 0001863  90.1191 270.0156 13.20770593102688
ONEWEB-0322             
1 49192U 21083G   23237.81455669 -.00000056  00000+0 -18705-3 0  9996
2 49192  87.9087 164.4016 0002617  85.0462 275.0966 13.13471255 97473
ONEWEB-0324             
1 49193U 21083H   23237.90610659  .00000056  00000+0  11013-3 0  9992
2 49193  87.9219 179.5588 0001915  67.0797 293.0537 13.18687275 94740
ONEWEB-0325             
1 49194U 21083J   23238.36556748  .00001580  00000+0  39741-2 0  9992
2 49194  87.9390 179.3448 0002468  52.1946 307.9409 13.18685828 96094
